NORAD_CAT_ID,OBJECT_NAME,OBJECT_TYPE,EPOCH,MEAN_MOTION,ECCENTRICITY,INCLINATION,RA_OF_ASC_NODE,ARG_OF_PERICENTER,MEAN_ANOMALY,BSTAR,MEAN_MOTION_DOT,MEAN_MOTION_DDOT,TLE_LINE0,TLE_LINE1,TLE_LINE2,SEMIMAJOR_AXIS,PERIOD,APOGEE,PERIGEE,DECAYED
49416.0,STARLINK-3133,PAYLOAD,2022-07-04 08:47:01,15.08838718,0.0003676,53.2164,144.0187,51.4279,308.7042,-3.9619e-06,-3.52e-06,0.0,0 STARLINK-3133,1 49416U 21104J   22185.36599073 -.00000352  00000-0 -39619-5 0  9997,2 49416  53.2164 144.0187 0003676  51.4279 308.7042 15.08838718 35687,6917.884,95.438,542.2919999999998,537.206,0.0
49416.0,STARLINK-3133,PAYLOAD,2022-07-05 03:51:38,15.08849549,0.0003701,53.2165,140.4504,52.8264,307.3065,7.2975e-06,-1.73e-06,0.0,0 STARLINK-3133,1 49416U 21104J   22186.16086132 -.00000173  00000-0  72975-5 0  9995,2 49416  53.2165 140.4504 0003701  52.8264 307.3065 15.08849549 36897,6917.851,95.437,542.276,537.156,0.0
49416.0,STARLINK-3133,PAYLOAD,2022-07-05 13:23:56,15.08850955,0.0003718,53.2165,138.6662,53.5203,306.6131,1.1943e-05,-9.9e-07,0.0,0 STARLINK-3133,1 49416U 21104J   22186.55829768 -.00000099  00000-0  11943-4 0  9992,2 49416  53.2165 138.6662 0003718  53.5203 306.6131 15.08850955 35865,6917.847,95.437,542.284,537.14,0.0
49416.0,STARLINK-3133,PAYLOAD,2022-07-05 19:45:29,15.08848891,0.0003707,53.2165,137.4768,54.08600000000001,306.0475,-1.9555e-05,-6e-06,0.0,0 STARLINK-3133,1 49416U 21104J   22186.82325843 -.00000600  00000-0 -19555-4 0  9993,2 49416  53.2165 137.4768 0003707  54.0860 306.0475 15.08848891 35908,6917.853,95.437,542.283,537.154,0.0
49416.0,STARLINK-3133,PAYLOAD,2022-07-06 13:14:44,15.08839448,0.000372,53.2167,134.2056,55.1313,305.0029,3.1765e-05,2.17e-06,0.0,0 STARLINK-3133,1 49416U 21104J   22187.55190239  .00000217  00000-0  31765-4 0  9992,2 49416  53.2167 134.2056 0003720  55.1313 305.0029 15.08839448 36010,6917.882,95.438,542.321,537.174,0.0
49416.0,STARLINK-3133,PAYLOAD,2022-07-06 19:36:16,15.08839585,0.0003731,53.2167,133.0161,55.7565,304.378,2.6036e-05,1.25e-06,0.0,0 STARLINK-3133,1 49416U 21104J   22187.81686247  .00000125  00000-0  26036-4 0  9993,2 49416  53.2167 133.0161 0003731  55.7565 304.3780 15.08839585 36053,6917.882,95.438,542.328,537.1659999999998,0.0
49416.0,STARLINK-3133,PAYLOAD,2022-07-07 03:33:13,15.08831848,0.000368,53.2169,131.5299,57.6409,302.4939,-0.00010201,-1.912e-05,0.0,0 STARLINK-3133,1 49416U 21104J   22188.14807379 -.00001912  00000-0 -10201-3 0  9994,2 49416  53.2169 131.5299 0003680  57.6409 302.4939 15.08831848 37196,6917.905,95.438,542.316,537.225,0.0
49416.0,STARLINK-3133,PAYLOAD,2022-07-07 05:08:36,15.08831819,0.0003683,53.2169,131.2326,57.7779,302.3569,-0.0001005,-1.888e-05,0.0,0 STARLINK-3133,1 49416U 21104J   22188.21431409 -.00001888  00000-0 -10050-3 0  9993,2 49416  53.2169 131.2326 0003683  57.7779 302.3569 15.08831819 36115,6917.905,95.438,542.318,537.2230000000002,0.0
49416.0,STARLINK-3133,PAYLOAD,2022-07-07 19:27:04,15.08840156,0.000347,53.2172,128.5565,59.8337,300.2999,-8.5705e-05,-1.653e-05,0.0,0 STARLINK-3133,1 49416U 21104J   22188.81046952 -.00001653  00000-0 -85705-4 0  9994,2 49416  53.2172 128.5565 0003470  59.8337 300.2999 15.08840156 37298,6917.88,95.438,542.145,537.344,0.0
49416.0,STARLINK-3133,PAYLOAD,2022-07-08 08:10:09,15.08843963,0.0003687,53.2171,126.1774,59.43600000000001,300.6996,0.00010076,1.315e-05,0.0,0 STARLINK-3133,1 49416U 21104J   22189.34038307  .00001315  00000-0  10076-3 0  9999,2 49416  53.2171 126.1774 0003687  59.4360 300.6996 15.08843963 36283,6917.868,95.437,542.284,537.183,0.0
49416.0,STARLINK-3133,PAYLOAD,2022-07-09 04:50:10,15.08835015,0.0003622,53.2168,122.3113,60.1713,299.9638,0.00010494,1.382e-05,0.0,0 STARLINK-3133,1 49416U 21104J   22190.20150968  .00001382  00000-0  10494-3 0  9992,2 49416  53.2168 122.3113 0003622  60.1713 299.9638 15.08835015 37502,6917.896,95.438,542.266,537.255,0.0
49416.0,STARLINK-3133,PAYLOAD,2022-07-09 12:47:06,15.08828037,0.0003608,53.2172,120.8245,61.0481,299.0872,2.4322e-05,9.8e-07,0.0,0 STARLINK-3133,1 49416U 21104J   22190.53271869  .00000098  00000-0  24322-4 0  9991,2 49416  53.2172 120.8245 0003608  61.0481 299.0872 15.08828037 37554,6917.917,95.438,542.278,537.286,0.0
49416.0,STARLINK-3133,PAYLOAD,2022-07-10 04:40:57,15.08841276,0.0003579,53.2172,117.8505,62.3573,297.7782,2.9447e-05,1.8e-06,0.0,0 STARLINK-3133,1 49416U 21104J   22191.19511273  .00000180  00000-0  29447-4 0  9995,2 49416  53.2172 117.8505 0003579  62.3573 297.7782 15.08841276 37658,6917.876,95.437,542.217,537.266,0.0
49416.0,STARLINK-3133,PAYLOAD,2022-07-10 06:16:20,15.08842752,0.0003595,53.2173,117.5532,62.1989,297.9367,4.2032e-05,3.8e-06,0.0,0 STARLINK-3133,1 49416U 21104J   22191.26135152  .00000380  00000-0  42032-4 0  9998,2 49416  53.2173 117.5532 0003595  62.1989 297.9367 15.08842752 36574,6917.871999999999,95.437,542.224,537.25,0.0
49416.0,STARLINK-3133,PAYLOAD,2022-07-10 12:37:52,15.08847747,0.0003566,53.2172,116.364,62.5525,297.583,3.8098e-05,3.18e-06,0.0,0 STARLINK-3133,1 49416U 21104J   22191.52630775  .00000318  00000-0  38098-4 0  9996,2 49416  53.2172 116.3640 0003566  62.5525 297.5830 15.08847747 36613,6917.857,95.437,542.189,537.255,0.0
49416.0,STARLINK-3133,PAYLOAD,2022-07-11 04:31:44,15.08842593,0.0003562,53.2173,113.3913,64.2938,295.8421,2.7696e-05,1.52e-06,0.0,0 STARLINK-3133,1 49416U 21104J   22192.18870969  .00000152  00000-0  27696-4 0  9998,2 49416  53.2173 113.3913 0003562  64.2938 295.8421 15.08842593 36719,6917.871999999999,95.437,542.202,537.273,0.0
49416.0,STARLINK-3133,PAYLOAD,2022-07-11 18:50:12,15.0883768,0.0003461,53.2171,110.714,63.8201,296.3147,0.00011905,1.606e-05,0.0,0 STARLINK-3133,1 49416U 21104J   22192.78487161  .00001606  00000-0  11905-3 0  9992,2 49416  53.2171 110.7140 0003461  63.8201 296.3147 15.08837680 37898,6917.887,95.438,542.1469999999998,537.3580000000002,0.0
49416.0,STARLINK-3133,PAYLOAD,2022-07-12 04:22:31,15.08840076,0.000347,53.2173,108.9301,64.3167,295.8184,6.0697e-05,6.77e-06,0.0,0 STARLINK-3133,1 49416U 21104J   22193.18231270  .00000677  00000-0  60697-4 0  9995,2 49416  53.2173 108.9301 0003470  64.3167 295.8184 15.08840076 36869,6917.88,95.438,542.146,537.345,0.0
49416.0,STARLINK-3133,PAYLOAD,2022-07-12 18:40:58,15.08855149,0.0003433,53.2173,106.2534,65.1027,295.0322,0.00013845,1.916e-05,0.0,0 STARLINK-3133,1 49416U 21104J   22193.77845922  .00001916  00000-0  13845-3 0  9994,2 49416  53.2173 106.2534 0003433  65.1027 295.0322 15.08855149 36954,6917.834,95.437,542.0740000000002,537.3240000000002,0.0
49416.0,STARLINK-3133,PAYLOAD,2022-07-13 10:34:50,15.08855706,0.0003166,53.2161,103.2811,66.1019,294.0305,0.00016964,2.413e-05,0.0,0 STARLINK-3133,1 49416U 21104J   22194.44085684  .00002413  00000-0  16964-3 0  9998,2 49416  53.2161 103.2811 0003166  66.1019 294.0305 15.08855706 37052,6917.831999999999,95.437,541.888,537.507,0.0
49416.0,STARLINK-3133,PAYLOAD,2022-07-13 18:31:46,15.08834916,0.0002984,53.2168,101.7906,62.5922,297.5374,-8.1064e-06,-4.18e-06,0.0,0 STARLINK-3133,1 49416U 21104J   22194.77206669 -.00000418  00000-0 -81064-5 0  9992,2 49416  53.2168 101.7906 0002984  62.5922 297.5374 15.08834916 38197,6917.896,95.438,541.825,537.697,0.0
49416.0,STARLINK-3133,PAYLOAD,2022-07-14 10:25:38,15.08830096,0.0003109,53.2168,98.8201,65.2782,294.8533,-0.00011189,-2.069e-05,0.0,0 STARLINK-3133,1 49416U 21104J   22195.43446825 -.00002069  00000-0 -11189-3 0  9999,2 49416  53.2168  98.8201 0003109  65.2782 294.8533 15.08830096 37208,6917.911,95.438,541.9259999999998,537.625,0.0
49416.0,STARLINK-3133,PAYLOAD,2022-07-14 19:57:57,15.088309699999998,0.0002927,53.2167,97.0357,67.7974,292.3328,0.0002163,3.155e-05,0.0,0 STARLINK-3133,1 49416U 21104J   22195.83191133  .00003155  00000-0  21630-3 0  9999,2 49416  53.2167  97.0357 0002927  67.7974 292.3328 15.08830970 38350,6917.908,95.438,541.798,537.748,0.0
49416.0,STARLINK-3133,PAYLOAD,2022-07-15 05:30:16,15.0882336,0.0002941,53.2164,95.2513,66.9546,293.1756,7.7987e-05,9.52e-06,0.0,0 STARLINK-3133,1 49416U 21104J   22196.22935720  .00000952  00000-0  77987-4 0  9990,2 49416  53.2164  95.2513 0002941  66.9546 293.1756 15.08823360 38419,6917.931,95.439,541.831,537.762,0.0
49416.0,STARLINK-3133,PAYLOAD,2022-07-15 21:24:08,15.08834444,0.0003008,53.2163,92.2783,68.1157,292.0155,0.00039453,5.995e-05,0.0,0 STARLINK-3133,1 49416U 21104J   22196.89176187  .00005995  00000-0  39453-3 0  9994,2 49416  53.2163  92.2783 0003008  68.1157 292.0155 15.08834444 37427,6917.897,95.438,541.8430000000002,537.681,0.0
49416.0,STARLINK-3133,PAYLOAD,2022-07-16 02:10:17,15.08843276,0.0003,53.2161,91.3863,67.4876,292.6434,0.00062674,9.702e-05,0.0,0 STARLINK-3133,1 49416U 21104J   22197.09048141  .00009702  00000-0  62674-3 0  9996,2 49416  53.2161  91.3863 0003000  67.4876 292.6434 15.08843276 38549,6917.87,95.437,541.811,537.66,0.0
49416.0,STARLINK-3133,PAYLOAD,2022-07-16 10:07:13,15.08851992,0.0002968,53.2158,89.8996,68.2667,291.8641,0.00092993,0.00014548,0.0,0 STARLINK-3133,1 49416U 21104J   22197.42168018  .00014548  00000-0  92993-3 0  9990,2 49416  53.2158  89.8996 0002968  68.2667 291.8641 15.08851992 37503,6917.844,95.437,541.762,537.656,0.0
49416.0,STARLINK-3133,PAYLOAD,2022-07-16 21:14:55,15.08844764,0.0003045,53.2159,87.8185,72.2698,287.8627,0.00027931,4.16e-05,0.0,0 STARLINK-3133,1 49416U 21104J   22197.88536071  .00004160  00000-0  27931-3 0  9997,2 49416  53.2159  87.8185 0003045  72.2698 287.8627 15.08844764 37573,6917.866,95.437,541.837,537.624,0.0
49416.0,STARLINK-3133,PAYLOAD,2022-07-17 02:01:04,15.08847806,0.0002962,53.2158,86.9253,69.4948,290.6362,0.00041865,6.382e-05,0.0,0 STARLINK-3133,1 49416U 21104J   22198.08408060  .00006382  00000-0  41865-3 0  9996,2 49416  53.2158  86.9253 0002962  69.4948 290.6362 15.08847806 38693,6917.857,95.437,541.771,537.672,0.0
